P10cIkW 19.8  0.15  K1472  77.61063   93.29524   99.71828   23.29066  0.1344295  0.40513788   1.8088427                  6   1    2 days 0.08         NEOCPNomin
